CSS (TIANHE)            
1 48274U 21035A   24185.46340696  .00039028  00000+0  41445-3 0  9996
2 48274  41.4686 343.8011 0004897 321.1628  38.8859 15.63290258181649
